{"spkid": "50550487", "covariance": {"labels": ["e", "q", "tp", "node", "peri", "i"], "data": [["1.152718368087211E-15", "-1.991756892065015E-15", "3.485210688586518E-13", "-2.831880632053861E-13", "3.413004568782457E-13", "-1.630833094623174E-14"], ["-1.991756892065015E-15", "3.442896816112712E-15", "-5.903326042740134E-13", "4.820367810115931E-13", "-5.764467866217424E-13", "2.788204838222474E-14"], ["3.485210688586518E-13", "-5.903326042740134E-13", "2.255574437449926E-10", "-1.55202661029432E-10", "2.370278924286432E-10", "-9.345686015814832E-12"], ["-2.831880632053861E-13", "4.820367810115931E-13", "-1.55202661029432E-10", "5.057098517737888E-9", "-5.107468063262361E-9", "-2.796000580019662E-10"], ["3.413004568782457E-13", "-5.764467866217424E-13", "2.370278924286432E-10", "-5.107468063262361E-9", "5.20188663823706E-9", "2.757546902694439E-10"], ["-1.630833094623174E-14", "2.788204838222474E-14", "-9.345686015814832E-12", "-2.796000580019662E-10", "2.757546902694439E-10", "3.012278788276511E-11"]], "elements": [{"label": "e", "sigma": 3.3951706409063e-08, "name": "e", "value": ".6111151404260132", "title": "eccentricity", "units": null}, {"name": "q", "sigma": 5.86762031501077e-08, "value": ".6822427713711512", "title": "perihelion distance", "units": "au", "label": "q"}, {"label": "tp", "value": "2458002.580756828395", "title": "time of perihelion passage", "units": "TDB", "sigma": 1.50185699633818e-05, "name": "tp"}, {"units": "deg", "value": "249.4304294692144", "title": "longitude of the ascending node", "name": "om", "sigma": 7.11132794753405e-05, "label": "node"}, {"label": "peri", "units": "deg", "value": "65.68742557804903", "title": "argument of perihelion", "sigma": 7.21241058054591e-05, "name": "w"}, {"label": "i", "name": "i", "sigma": 5.4884230779674e-06, "units": "deg", "value": "2.478862846340437", "title": "inclination"}], "epoch": "2458143.5"}, "elements": [{"label": "e", "units": null, "title": "eccentricity", "value": ".6119538778601389", "sigma": "3.3841E-8", "name": "e"}, {"units": "au", "value": "1.753489852815437", "title": "semi-major axis", "name": "a", "sigma": "2.9432E-9", "label": "a"}, {"units": "au", "value": ".6804349375966261", "title": "perihelion distance", "sigma": "5.8722E-8", "name": "q", "label": "q"}, {"units": "deg", "title": "inclination; angle with respect to x-y ecliptic plane", "value": "2.477379251760529", "sigma": "5.4856E-6", "name": "i", "label": "i"}, {"label": "node", "title": "longitude of the ascending node", "value": "249.3034199352786", "units": "deg", "sigma": "7.1251E-5", "name": "om"}, {"label": "peri", "sigma": "7.2259E-5", "name": "w", "units": "deg", "value": "65.82820244164898", "title": "argument of perihelion"}, {"label": "M", "title": "mean anomaly", "value": "276.5906175116319", "units": "deg", "sigma": "1.0171E-5", "name": "ma"}, {"name": "tp", "sigma": "2.444E-5", "units": "TDB", "value": "2461397.001431080707", "title": "time of perihelion passage", "label": "tp"}, {"units": "d", "value": "848.1122036710865", "title": "sidereal orbital period", "name": "per", "sigma": "2.1353E-6", "label": "period"}, {"value": ".4244721375800585", "title": "mean motion", "units": "deg/d", "sigma": "1.0687E-9", "name": "n", "label": "n"}, {"label": "Q", "name": "ad", "sigma": "4.7443E-9", "title": "aphelion distance", "value": "2.826544768034247", "units": "au"}], "epoch": "2461200.5"}